QIANFAN-9               
1 60387U 24140J   25297.72781147  .00000034  00000+0  33824-4 0  9997
2 60387  88.9736 304.4183 0015713 346.7315  13.3421 13.50974613 60713
QIANFAN-10              
1 60388U 24140K   25297.73199370  .00000022  00000+0  14963-4 0  9990
2 60388  88.9744 303.7603 0013446 323.5496  36.4739 13.50971243 60844
QIANFAN-11              
1 60389U 24140L   25297.76897528  .00000034  00000+0  34713-4 0  9992
2 60389  88.9671 304.3802 0013744 347.3145  12.7659 13.50971995 60503
QIANFAN-12              
1 60390U 24140M   25297.71543398  .00000052  00000+0  61214-4 0  9998
2 60390  88.9715 304.4078 0012885 356.6100   3.4961 13.50972356 60627
QIANFAN-13              
1 60391U 24140N   25297.76071316  .00000053  00000+0  64138-4 0  9999
2 60391  88.9727 304.4970 0012805 359.3032   0.8099 13.50972653 60654
QIANFAN-14              
1 60392U 24140P   25297.78530469  .00000038  00000+0  40096-4 0  9991
2 60392  88.9706 304.4025 0016442 357.0520   3.0531 13.50972867 60665
QIANFAN-15              
1 60393U 24140Q   25297.71945767  .00000048  00000+0  55402-4 0  9994
2 60393  88.9729 304.3542 0011793 345.7418  14.3398 13.50970785 60649
QIANFAN-16              
1 60394U 24140R   25297.70728990  .00000026  00000+0  21718-4 0  9990
2 60394  88.9732 304.4741 0014546   2.2292 357.8922 13.50971852 60554
